ORBCOMM-X [-]           
1 21576U 91050C   23275.46327088  .00000632  00000+0  20520-3 0  9995
2 21576  98.4248 341.4667 0002487 267.6964  92.3941 14.42190871692406
ORBCOMM FM01 [-]        
1 23545U 95017A   23275.15402957  .00008054  00000+0  11602-2 0  9991
2 23545  69.9689 172.0476 0006266 211.9230 148.1539 14.76631814520361
ORBCOMM FM02 [-]        
1 23546U 95017B   23275.86546414  .00007983  00000+0  11630-2 0  9998
2 23546  69.9710 189.3290 0007555 198.4039 161.6837 14.76145739520075
ORBCOMM FM08 [-]        
1 25112U 97084A   23275.85915838  .00002583  00000+0  83461-3 0  9997
2 25112  45.0133 108.6141 0007044 345.5064  14.5583 14.41300351351481
ORBCOMM FM10 [-]        
1 25113U 97084B   23275.85526049  .00002315  00000+0  75362-3 0  9994
2 25113  45.0146 110.3451 0004651 314.9665  45.0807 14.41243809351479
ORBCOMM FM11 [+]        
1 25114U 97084C   23275.37119848  .00002585  00000+0  83847-3 0  9993
2 25114  45.0132 112.5535 0005423 313.1609  46.8787 14.41127300351393
ORBCOMM FM12 [-]        
1 25115U 97084D   23275.81256317  .00002298  00000+0  75035-3 0  9997
2 25115  45.0140 110.0908 0004407 316.3287  43.7214 14.41120378351465
ORBCOMM FM09 [-]        
1 25116U 97084E   23275.68060124  .00002488  00000+0  80904-3 0  9994
2 25116  45.0143 111.3494 0005575 297.6638  62.3646 14.41101934351442
